NORAD_CAT_ID,OBJECT_NAME,OBJECT_TYPE,EPOCH,MEAN_MOTION,ECCENTRICITY,INCLINATION,RA_OF_ASC_NODE,ARG_OF_PERICENTER,MEAN_ANOMALY,BSTAR,MEAN_MOTION_DOT,MEAN_MOTION_DDOT,TLE_LINE0,TLE_LINE1,TLE_LINE2,SEMIMAJOR_AXIS,PERIOD,APOGEE,PERIGEE,DECAYED
52663.0,STARLINK-4037,PAYLOAD,2023-03-18 11:23:19,15.08857291,0.0001503,53.2166,354.8231,65.5892,294.5257,0.00067495,0.00010475,0.0,0 STARLINK-4037,1 52663U 22053H   23077.47453443  .00010475  00000-0  67495-3 0  9998,2 52663  53.2166 354.8231 0001503  65.5892 294.5257 15.08857291 46917,6917.828,95.436,540.732,538.653,0.0
52663.0,STARLINK-4037,PAYLOAD,2023-03-18 22:31:01,15.08848716,0.0002422,53.216,352.7418,68.3757,291.7493,0.00020155,2.922e-05,0.0,0 STARLINK-4037,1 52663U 22053H   23077.93821650  .00002922  00000-0  20155-3 0  9998,2 52663  53.2160 352.7418 0002422  68.3757 291.7493 15.08848716 46987,6917.854,95.437,541.394,538.043,0.0
52663.0,STARLINK-4037,PAYLOAD,2023-03-19 03:17:10,15.08857166,0.0001226,53.2163,351.8505,74.8691,285.2436,0.00039657,6.032e-05,0.0,0 STARLINK-4037,1 52663U 22053H   23078.13693032  .00006032  00000-0  39657-3 0  9995,2 52663  53.2163 351.8505 0001226  74.8691 285.2436 15.08857166 47016,6917.828,95.436,540.541,538.845,0.0
52663.0,STARLINK-4037,PAYLOAD,2023-03-20 03:07:58,15.08852992,0.0001424,53.2166,347.3894,76.0645,284.0505,0.0007035,0.0001093,0.0,0 STARLINK-4037,1 52663U 22053H   23079.13053414  .00010930  00000-0  70350-3 0  9997,2 52663  53.2166 347.3894 0001424  76.0645 284.0505 15.08852992 47165,6917.841,95.437,540.691,538.721,0.0
52663.0,STARLINK-4037,PAYLOAD,2023-03-20 23:47:58,15.08854285,0.0001234,53.2164,343.5224,104.9581,255.1548,0.00045913,7.03e-05,0.0,0 STARLINK-4037,1 52663U 22053H   23079.99165137  .00007030  00000-0  45913-3 0  9991,2 52663  53.2164 343.5224 0001234 104.9581 255.1548 15.08854285 47294,6917.837,95.437,540.555,538.848,0.0
52663.0,STARLINK-4037,PAYLOAD,2023-03-21 20:27:59,15.08845444,0.0001013,53.2164,339.6579,81.4315,278.6791,0.00074575,0.00011602,0.0,0 STARLINK-4037,1 52663U 22053H   23080.85277410  .00011602  00000-0  74575-3 0  9992,2 52663  53.2164 339.6579 0001013  81.4315 278.6791 15.08845444 47424,6917.864,95.437,540.43,539.028,0.0
52663.0,STARLINK-4037,PAYLOAD,2023-03-21 22:03:22,15.08846852,9.81e-05,53.2165,339.3605,80.5912,279.5191,0.00081021,0.00012632,0.0,0 STARLINK-4037,1 52663U 22053H   23080.91901400  .00012632  00000-0  81021-3 0  9990,2 52663  53.2165 339.3605 0000981  80.5912 279.5191 15.08846852 47437,6917.859,95.437,540.403,539.046,0.0
52663.0,STARLINK-4037,PAYLOAD,2023-03-22 20:18:46,15.0884398,0.0001092,53.2165,335.1936,83.5188,276.5929,0.00019747,2.857e-05,0.0,0 STARLINK-4037,1 52663U 22053H   23081.84637316  .00002857  00000-0  19747-3 0  9999,2 52663  53.2165 335.1936 0001092  83.5188 276.5929 15.08843980 47570,6917.868,95.437,540.489,538.978,0.0
52663.0,STARLINK-4037,PAYLOAD,2023-03-22 21:54:09,15.08850589,0.0001081,53.2169,334.8961,78.0139,282.0975,-0.00011117,-2.057e-05,0.0,0 STARLINK-4037,1 52663U 22053H   23081.91260919 -.00002057  00000-0 -11117-3 0  9995,2 52663  53.2169 334.8961 0001081  78.0139 282.0975 15.08850589 47588,6917.848,95.437,540.461,538.965,0.0
52663.0,STARLINK-4037,PAYLOAD,2023-03-23 02:40:18,15.08853371,0.0001135,53.2164,334.0036,82.8472,277.2649,9.6976e-05,1.256e-05,0.0,0 STARLINK-4037,1 52663U 22053H   23082.11132777  .00001256  00000-0  96976-4 0  9993,2 52663  53.2164 334.0036 0001135  82.8472 277.2649 15.08853371 47611,6917.84,95.437,540.49,538.919,0.0
52663.0,STARLINK-4037,PAYLOAD,2023-03-23 20:09:33,15.08838017,0.0001436,53.2158,330.7299,113.3318,246.7826,1.8527e-05,7e-08,0.0,0 STARLINK-4037,1 52663U 22053H   23082.83997620  .00000007  00000-0  18527-4 0  9997,2 52663  53.2158 330.7299 0001436 113.3318 246.7826 15.08838017 47721,6917.886,95.438,540.745,538.758,0.0
52663.0,STARLINK-4037,PAYLOAD,2023-03-23 21:44:57,15.08836161,0.0001051,53.2171,330.4354,85.4446,274.6666,5.4287e-05,5.76e-06,0.0,0 STARLINK-4037,1 52663U 22053H   23082.90621868  .00000576  00000-0  54287-4 0  9997,2 52663  53.2171 330.4354 0001051  85.4446 274.6666 15.08836161 47730,6917.892,95.438,540.484,539.03,0.0
52663.0,STARLINK-4037,PAYLOAD,2023-03-24 02:31:05,15.0885584,9.88e-05,53.2157,329.5453,57.8917,302.2171,0.00041262,6.288e-05,0.0,0 STARLINK-4037,1 52663U 22053H   23083.10493025  .00006288  00000-0  41262-3 0  9996,2 52663  53.2157 329.5453 0000988  57.8917 302.2171 15.08855840 47764,6917.832,95.437,540.38,539.013,0.0
52663.0,STARLINK-4037,PAYLOAD,2023-03-24 21:35:42,15.08865642,0.0001122,53.2147,325.9783,62.8933,297.2173,0.00039042,5.935e-05,0.0,0 STARLINK-4037,1 52663U 22053H   23083.89979984  .00005935  00000-0  39042-3 0  9996,2 52663  53.2147 325.9783 0001122  62.8933 297.2173 15.08865642 47883,6917.802,95.436,540.443,538.891,0.0
52663.0,STARLINK-4037,PAYLOAD,2023-03-25 02:21:51,15.08886211,0.000106,53.2151,325.0858,72.061,288.0498,0.00075254,0.00011724,0.0,0 STARLINK-4037,1 52663U 22053H   23084.09850732  .00011724  00000-0  75254-3 0  9996,2 52663  53.2151 325.0858 0001060  72.0610 288.0498 15.08886211 47915,6917.739,95.435,540.337,538.871,0.0
52663.0,STARLINK-4037,PAYLOAD,2023-03-25 19:51:08,15.08810598,0.0001151,53.215,321.8174,91.8028,268.3096,-0.00068806,-0.00011213,0.0,0 STARLINK-4037,1 52663U 22053H   23084.82718182 -.00011213  00000-0 -68806-3 0  9999,2 52663  53.2150 321.8174 0001151  91.8028 268.3096 15.08810598 48025,6917.97,95.439,540.632,539.039,0.0
52663.0,STARLINK-4037,PAYLOAD,2023-03-25 23:01:55,15.08807182,0.0001202,53.2148,321.2214,93.1828,266.9301,-0.0006929,-0.00011288,0.0,0 STARLINK-4037,1 52663U 22053H   23084.95966476 -.00011288  00000-0 -69290-3 0  9994,2 52663  53.2148 321.2214 0001202  93.1828 266.9301 15.08807182 48041,6917.981,95.44,540.677,539.014,0.0
52663.0,STARLINK-4037,PAYLOAD,2023-03-26 19:41:56,15.08818835,8.64e-05,53.2152,317.3545,110.061,250.0475,-0.00024518,-4.185e-05,0.0,0 STARLINK-4037,1 52663U 22053H   23085.82078744 -.00004185  00000-0 -24518-3 0  9995,2 52663  53.2152 317.3545 0000864 110.0610 250.0475 15.08818835 48177,6917.945,95.439,540.408,539.212,0.0
52663.0,STARLINK-4037,PAYLOAD,2023-03-26 21:17:19,15.08823626,0.0001017,53.2147,317.0583,104.2601,255.8505,-1.2984e-05,-4.94e-06,0.0,0 STARLINK-4037,1 52663U 22053H   23085.88703359 -.00000494  00000-0 -12984-4 0  9992,2 52663  53.2147 317.0583 0001017 104.2601 255.8505 15.08823626 48188,6917.93,95.439,540.499,539.092,0.0
52663.0,STARLINK-4037,PAYLOAD,2023-03-27 02:03:29,15.08833221,0.0001097,53.2152,316.1653,93.4097,266.7021,0.0011451,0.0001798,0.0,0 STARLINK-4037,1 52663U 22053H   23086.08576235  .00017980  00000-0  11451-2 0  9998,2 52663  53.2152 316.1653 0001097  93.4097 266.7021 15.08833221 48218,6917.901,95.438,540.525,539.007,0.0
52663.0,STARLINK-4037,PAYLOAD,2023-03-27 21:08:06,15.08875142,0.0001056,53.215,312.5968,91.2106,268.9007,0.0012962,0.00020421,0.0,0 STARLINK-4037,1 52663U 22053H   23086.88063049  .00020421  00000-0  12962-2 0  9992,2 52663  53.2150 312.5968 0001056  91.2106 268.9007 15.08875142 48336,6917.773,95.435,540.368,538.907,0.0
52663.0,STARLINK-4037,PAYLOAD,2023-03-28 00:18:52,15.08887829,0.0001085,53.215,312.0029,83.6055,276.506,0.0017586,0.00027848,0.0,0 STARLINK-4037,1 52663U 22053H   23087.01310656  .00027848  00000-0  17586-2 0  9994,2 52663  53.2150 312.0029 0001085  83.6055 276.5060 15.08887829 48350,6917.734,95.435,540.35,538.849,0.0
52663.0,STARLINK-4037,PAYLOAD,2023-03-28 14:37:20,15.0886092,0.0001461,53.2152,309.3259,87.2377,272.8782,0.0011495,0.00018064,0.0,0 STARLINK-4037,1 52663U 22053H   23087.60926705  .00018064  00000-0  11495-2 0  9990,2 52663  53.2152 309.3259 0001461  87.2377 272.8782 15.08860920 48444,6917.816,95.436,540.692,538.671,0.0
52663.0,STARLINK-4037,PAYLOAD,2023-03-28 20:58:53,15.08856343,0.0001455,53.2163,308.1365,76.6899,283.4255,0.0012587,0.0001981,0.0,0 STARLINK-4037,1 52663U 22053H   23087.87422659  .00019810  00000-0  12587-2 0  9991,2 52663  53.2163 308.1365 0001455  76.6899 283.4255 15.08856343 48486,6917.83,95.437,540.702,538.689,0.0
52663.0,STARLINK-4037,PAYLOAD,2023-03-29 00:09:39,15.08862581,0.000125,53.2159,307.541,75.2586,284.8544,0.00074324,0.00011568,0.0,0 STARLINK-4037,1 52663U 22053H   23088.00670370  .00011568  00000-0  74324-3 0  9992,2 52663  53.2159 307.5410 0001250  75.2586 284.8544 15.08862581 48506,6917.811,95.436,540.541,538.812,0.0
52663.0,STARLINK-4037,PAYLOAD,2023-03-29 20:49:40,15.0885274,0.0001163,53.215,303.6766,68.2243,291.8873,0.0012087,0.00019007,0.0,0 STARLINK-4037,1 52663U 22053H   23088.86782713  .00019007  00000-0  12087-2 0  9994,2 52663  53.2150 303.6766 0001163  68.2243 291.8873 15.08852740 48636,6917.841,95.437,540.511,538.902,0.0
52663.0,STARLINK-4037,PAYLOAD,2023-03-30 23:51:13,15.08865918,0.0001068,53.2151,298.6208,82.8154,277.2959,0.0014525,0.00022921,0.0,0 STARLINK-4037,1 52663U 22053H   23089.99390245  .00022921  00000-0  14525-2 0  9992,2 52663  53.2151 298.6208 0001068  82.8154 277.2959 15.08865918 48801,6917.801,95.436,540.405,538.927,0.0
52663.0,STARLINK-4037,PAYLOAD,2023-03-31 14:09:41,15.08849994,0.0001616,53.2164,295.9429,85.2166,274.9011,0.0007553,0.00011756,0.0,0 STARLINK-4037,1 52663U 22053H   23090.59006369  .00011756  00000-0  75530-3 0  9999,2 52663  53.2164 295.9429 0001616  85.2166 274.9011 15.08849994 48897,6917.85,95.437,540.833,538.597,0.0
52663.0,STARLINK-4037,PAYLOAD,2023-03-31 23:41:59,15.08859395,0.0001118,53.2153,294.1602,98.7912,261.3206,0.0010508,0.00016484,0.0,0 STARLINK-4037,1 52663U 22053H   23090.98749995  .00016484  00000-0  10508-2 0  9997,2 52663  53.2153 294.1602 0001118  98.7912 261.3206 15.08859395 48953,6917.821,95.436,540.46,538.913,0.0
52663.0,STARLINK-4037,PAYLOAD,2023-04-01 20:22:01,15.08831121,0.0001058,53.2152,290.2949,86.3181,273.7932,0.00047791,7.324e-05,0.0,0 STARLINK-4037,1 52663U 22053H   23091.84863058  .00007324  00000-0  47791-3 0  9998,2 52663  53.2152 290.2949 0001058  86.3181 273.7932 15.08831121 49082,6917.908,95.438,540.504,539.041,0.0
